[{"OBJECT_NAME":"STARLINK-3927","OBJECT_ID":"2022-051AN","EPOCH":"2026-03-09T10:26:24.619488","MEAN_MOTION":15.08837628,"ECCENTRICITY":0.00012494,"INCLINATION":53.2158,"RA_OF_ASC_NODE":120.2619,"ARG_OF_PERICENTER":93.9577,"MEAN_ANOMALY":266.1558,"EPHEMERIS_TYPE":0,"CLASSIFICATION_TYPE":"U","NORAD_CAT_ID":52569,"ELEMENT_SET_NO":999,"REV_AT_EPOCH":21154,"BSTAR":-8.24865e-7,"MEAN_MOTION_DOT":-3.01e-6,"MEAN_MOTION_DDOT":0},{"OBJECT_NAME":"FENGYUN 1C DEB","OBJECT_ID":"1999-025AMC","EPOCH":"2026-03-09T19:39:36.291456","MEAN_MOTION":15.06799557,"ECCENTRICITY":0.00299661,"INCLINATION":98.9468,"RA_OF_ASC_NODE":22.995,"ARG_OF_PERICENTER":242.9892,"MEAN_ANOMALY":116.8272,"EPHEMERIS_TYPE":0,"CLASSIFICATION_TYPE":"U","NORAD_CAT_ID":30597,"ELEMENT_SET_NO":999,"REV_AT_EPOCH":99841,"BSTAR":0.005730905,"MEAN_MOTION_DOT":0.00087128,"MEAN_MOTION_DDOT":0}]
